[{"OBJECT_NAME":"QIANFAN-106","OBJECT_ID":"2025-233R","EPOCH":"2026-03-09T22:43:14.795328","MEAN_MOTION":13.51005481,"ECCENTRICITY":0.00023993,"INCLINATION":88.993,"RA_OF_ASC_NODE":53.1927,"ARG_OF_PERICENTER":83.8759,"MEAN_ANOMALY":276.2665,"EPHEMERIS_TYPE":0,"CLASSIFICATION_TYPE":"U","NORAD_CAT_ID":66048,"ELEMENT_SET_NO":999,"REV_AT_EPOCH":1979,"BSTAR":7.4720354e-5,"MEAN_MOTION_DOT":6.0e-7,"MEAN_MOTION_DDOT":0},{"OBJECT_NAME":"COSMOS 249 DEB","OBJECT_ID":"1968-091CL","EPOCH":"2026-03-09T07:16:29.754624","MEAN_MOTION":14.12193619,"ECCENTRICITY":0.03015972,"INCLINATION":62.2016,"RA_OF_ASC_NODE":172.89,"ARG_OF_PERICENTER":264.0838,"MEAN_ANOMALY":126.372,"EPHEMERIS_TYPE":0,"CLASSIFICATION_TYPE":"U","NORAD_CAT_ID":14410,"ELEMENT_SET_NO":999,"REV_AT_EPOCH":9006,"BSTAR":0.0044004561,"MEAN_MOTION_DOT":0.00012369,"MEAN_MOTION_DDOT":0}]
